COSMOS 2425 (716)       
1 29670U 06062A   21189.48895028  .00000055  00000-0  00000+0 0  9992
2 29670  64.8363 254.7388 0023838 341.2976 108.6133  2.13117178113119
COSMOS 2433 (720)       
1 32275U 07052A   21189.38969825 -.00000044  00000-0  00000-0 0  9993
2 32275  66.0628  16.0898 0000872 183.4336   2.9031  2.13104167106632
COSMOS 2432 (719)       
1 32276U 07052B   21189.72405336 -.00000043  00000-0  00000-0 0  9993
2 32276  66.0809  16.1729 0008880 342.3731  49.7189  2.13103603106648
COSMOS 2434 (721)       
1 32393U 07065A   21189.63062277  .00000058  00000-0  00000+0 0  9994
2 32393  64.4550 253.1825 0002077 120.1910 139.4334  2.13103089105349
COSMOS 2436 (723)       
1 32395U 07065C   21189.79149417  .00000059  00000-0  00000-0 0  9997
2 32395  64.4625 253.2302 0013801 354.8351 164.2995  2.13103030105285
COSMOS 2456 (730)       
1 36111U 09070A   21189.90056598  .00000001  00000-0  00000-0 0  9992
2 36111  64.2806 132.8472 0005614 308.4886 328.4896  2.13099323 90012
COSMOS 2457 (733)       
1 36112U 09070B   21189.61960816 -.00000001  00000-0  00000-0 0  9999
2 36112  64.2629 132.7423 0004269 187.4421 358.5498  2.13101522 90013
COSMOS 2459 (731)       
1 36400U 10007A   21189.38540332 -.00000045  00000-0  00000-0 0  9990
2 36400  65.9621  15.0111 0025553 352.2809  48.5909  2.13108646 88352
COSMOS 2461 (735)       
1 36401U 10007B   21189.38540332 -.00000045  00000-0  00000-0 0  9991
2 36401  65.9554  14.9754 0020599  13.7057  27.2593  2.13103715 88364
COSMOS 2460 (732)       
1 36402U 10007C   21189.15969762 -.00000045  00000-0  00000-0 0  9999
2 36402  65.9422  14.9390 0002531  85.3118  87.4988  2.13106476 88356
COSMOS 2464 (736)       
1 37139U 10041C   21189.47835265  .00000058  00000-0  00000-0 0  9993
2 37139  64.0540 252.4343 0026641   7.9941 355.5742  2.13100781 84428
COSMOS 2471 (701K)      
1 37372U 11009A   21187.12643084 -.00000049  00000-0  00000-0 0  9994
2 37372  65.9369  14.9350 0014472 225.8656 333.8727  2.13052339 80588
COSMOS 2476 (744)       
1 37867U 11064A   21189.56221655  .00000001  00000-0  00000-0 0  9997
2 37867  64.5752 134.0797 0021789 241.2757  38.6710  2.13101817 75357
COSMOS 2477 (745)       
1 37868U 11064B   21189.58445848  .00000001  00000-0  00000-0 0  9992
2 37868  64.5830 134.1406 0019070 242.0264 233.2936  2.13101847 75317
COSMOS 2475 (743)       
1 37869U 11064C   21189.59515770  .00000001  00000-0  00000+0 0  9995
2 37869  64.5904 134.1446 0023897 260.6533 180.5823  2.13102055 75323
COSMOS 2485 (747)       
1 39155U 13019A   21189.40956966  .00000001  00000-0  00000-0 0  9994
2 39155  64.7410 134.4389 0022199 236.9291 330.3788  2.13101977 63826
COSMOS 2492 (754)       
1 39620U 14012A   21189.80234664 -.00000045  00000-0  00000-0 0  9992
2 39620  65.8328  14.6474 0011992 334.1068 209.3212  2.13103277 56788
COSMOS 2500 (755)       
1 40001U 14032A   21189.78855551 -.00000045  00000-0  00000-0 0  9990
2 40001  65.7711  14.5349 0005561 181.3177 211.1248  2.13102463 55006
COSMOS 2501 (702K)      
1 40315U 14075A   21189.89830912  .00000058  00000-0  00000-0 0  9994
2 40315  63.7638 253.2212 0018411 210.9921  72.0893  2.13101520 51408
COSMOS 2514 (751)       
1 41330U 16008A   21189.53711148 -.00000046  00000-0  00000+0 0  9997
2 41330  65.5723  14.3189 0008632 200.1972 182.5147  2.13102837 42165
COSMOS 2516 (753)       
1 41554U 16032A   21189.21880561  .00000055  00000-0  00000-0 0  9993
2 41554  63.9907 253.4219 0014814 217.7629 176.4199  2.13107133 39766
COSMOS 2522 (752)       
1 42939U 17055A   21189.35396713  .00000055  00000-0  00000-0 0  9993
2 42939  64.2240 253.7114 0008752 242.5271 118.0079  2.13101932 29521
COSMOS 2527 (756)       
1 43508U 18053A   21189.53706755  .00000001  00000-0  00000-0 0  9997
2 43508  64.9027 134.3646 0008695 240.5873 292.5199  2.13102720 23813
COSMOS 2529 (757)       
1 43687U 18086A   21189.41452363  .00000056  00000-0  00000-0 0  9991
2 43687  64.4387 253.9325 0010776 264.3481  98.2102  2.13102112 20838
COSMOS 2534 (758)       
1 44299U 19030A   21189.56037517  .00000057  00000-0  00000-0 0  9998
2 44299  64.5092 253.7804 0013181 284.0838 325.1956  2.13102074 16471
COSMOS 2544 (759)       
1 44850U 19088A   21189.63032182  .00000002  00000-0  00000-0 0  9995
2 44850  64.8898 134.2186 0013488 266.0814  22.3072  2.13102261 12245
COSMOS 2545 (760)       
1 45358U 20018A   21189.24830626 -.00000048  00000-0  00000-0 0  9991
2 45358  64.9068  15.2220 0006632 240.7766 324.5310  2.13102936 10197
